{
  "type": "FeatureCollection",
  "name": "sisaket-province",
  "features": [
    {
      "type": "Feature",
      "properties": {
        "pro_code": "33",
        "pro_th": "ศรีสะเกษ",
        "pro_en": "Sisaket",
        "reg_nesdb": "Northeast",
        "reg_royin": "Northeast",
        "area_sqkm": 8869.49885872576
      },
      "geometry": {
        "type": "MultiPolygon",
        "coordinates": [
          [
            [
              [
                104.83808740069061,
                14.739033644100546
              ],
              [
                104.84342201983776,
                14.735558297983301
              ],
              [
                104.84635470940015,
                14.722546106123165
              ],
              [
                104.86166502635737,
                14.708270786053907
              ],
              [
                104.876894884829,
                14.698956073343803
              ],
              [
                104.87675577049836,
                14.672597975001176
              ],
              [
                104.8895315262996,
                14.651075830030777
              ],
              [
                104.87553405071945,
                14.660283435122825
              ],
              [
                104.85070344807434,
                14.659602152619764
              ],
              [
                104.84703642962127,
                14.647473483536096
              ],
              [
                104.8367255143988,
                14.635760424428238
              ],
              [
                104.83761835865569,
                14.630215108496126
              ],
              [
                104.83830130795485,
                14.617012388598697
              ],
              [
                104.82638586769653,
                14.606616568937381
              ],
              [
                104.82794144655809,
                14.578107819574692
              ],
              [
                104.81923130008887,
                14.559283600432568
              ],
              [
                104.81633881038412,
                14.551545415932898
              ],
              [
                104.82799705601265,
                14.532849579374375
              ],
              [
                104.84850156993056,
                14.51120008473124
              ],
              [
                104.86254493642168,
                14.497503744033086
              ],
              [
                104.85948816651131,
                14.473125958626875
              ],
              [
                104.82877271534369,
                14.440705567978391
              ],
              [
                104.84011596679291,
                14.425991844734332
              ],
              [
                104.85283382055299,
                14.424988288799765
              ],
              [
                104.87612535231227,
                14.436903765845653
              ],
              [
                104.88829861895861,
                14.424539519791264
              ],
              [
                104.90588310178563,
                14.41250286090185
              ],
              [
                104.90696520099975,
                14.399459213134207
              ],
              [
                104.87165389453607,
                14.417825506237445
              ],
              [
                104.86180172827692,
                14.40887425570762
              ],
              [
                104.85694217828102,
                14.412745997455989
              ],
              [
                104.85378794314421,
                14.40760213181009
              ],
              [
                104.84171017644948,
                14.403463828395601
              ],
              [
                104.83939431767216,
                14.413660156930865
              ],
              [
                104.81861513252484,
                14.418711115673442
              ],
              [
                104.81789883859321,
                14.42742233648141
              ],
              [
                104.80526473464707,
                14.437590483896667
              ],
              [
                104.79046359461437,
                14.43521932242126
              ],
              [
                104.77882038167361,
                14.426123234644633
              ],
              [
                104.76618293045232,
                14.423828637085432
              ],
              [
                104.75286874841811,
                14.405461756427135
              ],
              [
                104.73921334416025,
                14.413710855678268
              ],
              [
                104.72432087627928,
                14.40245646324124
              ],
              [
                104.72284472032696,
                14.423403941590868
              ],
              [
                104.7088249605645,
                14.433220505251342
              ],
              [
                104.69479329807828,
                14.421796957593815
              ],
              [
                104.68331503206807,
                14.395659954616777
              ],
              [
                104.6784627366824,
                14.395434821559281
              ],
              [
                104.67929277406267,
                14.390425137050356
              ],
              [
                104.67136850349787,
                14.398360472330088
              ],
              [
                104.65797055480407,
                14.401121218097524
              ],
              [
                104.65307743731046,
                14.407746684393436
              ],
              [
                104.65272388775674,
                14.41911126850962
              ],
              [
                104.64640300086124,
                14.423674504119811
              ],
              [
                104.6270152024592,
                14.405779038584901
              ],
              [
                104.61352955393997,
                14.396693313394398
              ],
              [
                104.60668629152754,
                14.396840457970937
              ],
              [
                104.57981290018326,
                14.37430884754713
              ],
              [
                104.57855779520021,
                14.357352540564154
              ],
              [
                104.56937571183488,
                14.359801046154548
              ],
              [
                104.5635377582223,
                14.352081343571482
              ],
              [
                104.53466290110286,
                14.354299040252037
              ],
              [
                104.5120971104237,
                14.371792711547503
              ],
              [
                104.50087899015013,
                14.375400863496106
              ],
              [
                104.49256143503128,
                14.371904723282405
              ],
              [
                104.47751814919737,
                14.363592250073074
              ],
              [
                104.47833222524338,
                14.352327992879955
              ],
              [
                104.46458033368577,
                14.344865567692914
              ],
              [
                104.45975321475848,
                14.361270357554195
              ],
              [
                104.44957888930654,
                14.35698103883087
              ],
              [
                104.43632492830454,
                14.35826007340691
              ],
              [
                104.41498730607002,
                14.371462183206038
              ],
              [
                104.40649768705245,
                14.36612464405722
              ],
              [
                104.39553238525957,
                14.374664657788404
              ],
              [
                104.38123755949654,
                14.369048858703769
              ],
              [
                104.35673418777989,
                14.372679562880062
              ],
              [
                104.34764268595222,
                14.368762692844687
              ],
              [
                104.33344938634262,
                14.36885059565546
              ],
              [
                104.32137836072759,
                14.374820050851975
              ],
              [
                104.27681228004626,
                14.408375072520817
              ],
              [
                104.25110164174095,
                14.39152532057556
              ],
              [
                104.25245221483463,
                14.386897662713837
              ],
              [
                104.24547722797506,
                14.376034530946914
              ],
              [
                104.23095981293135,
                14.370456066834496
              ],
              [
                104.21106591780192,
                14.367721399566678
              ],
              [
                104.19899560591607,
                14.383173040360578
              ],
              [
                104.18585086074938,
                14.384363175447579
              ],
              [
                104.1707538059165,
                14.375855246012891
              ],
              [
                104.17543431164063,
                14.361600332050504
              ],
              [
                104.16925680005659,
                14.357250036314271
              ],
              [
                104.14116572139713,
                14.35521045377006
              ],
              [
                104.13649321670154,
                14.358911395157554
              ],
              [
                104.13991488859477,
                14.367134918106627
              ],
              [
                104.13718566256881,
                14.373322004610353
              ],
              [
                104.11816541859751,
                14.375535867328638
              ],
              [
                104.10787891481444,
                14.378358017906582
              ],
              [
                104.10638949604565,
                14.370837535975687
              ],
              [
                104.09834710735201,
                14.366612049563503
              ],
              [
                104.08781594752391,
                14.347721434247813
              ],
              [
                104.06810412514263,
                14.342020787924021
              ],
              [
                104.05692732242484,
                14.343959542442159
              ],
              [
                104.05237896114147,
                14.355961039341517
              ],
              [
                104.04360723109527,
                14.361273248888233
              ],
              [
                104.05039137514895,
                14.378621674502924
              ],
              [
                104.04642412155154,
                14.387558512151713
              ],
              [
                104.04678360557517,
                14.408236272497788
              ],
              [
                104.05362972344435,
                14.415053718988384
              ],
              [
                104.05127615959698,
                14.43339040145374
              ],
              [
                104.05618328816917,
                14.449183232691505
              ],
              [
                104.05403896504626,
                14.45511672846688
              ],
              [
                104.05855252931109,
                14.460466536050758
              ],
              [
                104.05814736256247,
                14.469304585685217
              ],
              [
                104.04793325333978,
                14.482427903665576
              ],
              [
                104.05305472257878,
                14.494842526095836
              ],
              [
                104.0458118794274,
                14.495349997739114
              ],
              [
                104.035186615067,
                14.498148895901588
              ],
              [
                104.03722486757721,
                14.516184354729843
              ],
              [
                104.03207265193893,
                14.544119933320532
              ],
              [
                104.0469291518923,
                14.555456066942382
              ],
              [
                104.04574364507717,
                14.566078388962616
              ],
              [
                104.0513474237178,
                14.571913225629823
              ],
              [
                104.05864005954226,
                14.599650970853784
              ],
              [
                104.05775942366016,
                14.623015551949278
              ],
              [
                104.05114872996825,
                14.637373685261734
              ],
              [
                104.05510382602809,
                14.645581966436641
              ],
              [
                104.05307560479135,
                14.656802758609308
              ],
              [
                104.04811736049119,
                14.675075246552787
              ],
              [
                104.00744843554666,
                14.715822200232033
              ],
              [
                103.9957738408475,
                14.747134750489664
              ],
              [
                103.99249159282779,
                14.750496088480539
              ],
              [
                103.99222930387047,
                14.78901201904518
              ],
              [
                103.98573675055052,
                14.800339401847976
              ],
              [
                103.97075451011753,
                14.812038697872055
              ],
              [
                103.91752377650806,
                14.828555518246871
              ],
              [
                103.9032822466471,
                14.847621793381514
              ],
              [
                103.90773781347087,
                14.861826905775942
              ],
              [
                103.92004922895875,
                14.87258597567571
              ],
              [
                103.91662714398355,
                14.882765638559547
              ],
              [
                103.92235834361581,
                14.893953886098787
              ],
              [
                103.92500123494528,
                14.894844385732995
              ],
              [
                103.9273646357274,
                14.903851812371492
              ],
              [
                103.93775193608312,
                14.909156498286734
              ],
              [
                103.93718634369225,
                14.91593563578837
              ],
              [
                103.94510646814958,
                14.922312567198315
              ],
              [
                103.94308834074516,
                14.926612178598308
              ],
              [
                103.94527503416052,
                14.92413270709833
              ],
              [
                103.94817696877662,
                14.92518616313538
              ],
              [
                103.94511305914062,
                14.925734708760242
              ],
              [
                103.94864158746351,
                14.936550231576163
              ],
              [
                103.94536405932934,
                14.942691988027525
              ],
              [
                103.9540707062032,
                14.941767371974294
              ],
              [
                103.95514499066407,
                14.937872324561072
              ],
              [
                103.96355268440121,
                14.94920984119138
              ],
              [
                103.9689164512249,
                14.949028746575049
              ],
              [
                103.96873819403324,
                14.966657175303807
              ],
              [
                103.96498630564238,
                14.969747813106686
              ],
              [
                103.97426011056136,
                14.97810633464648
              ],
              [
                103.97507808543715,
                14.97401972162802
              ],
              [
                103.98142363714673,
                14.97483048257878
              ],
              [
                103.98461658298443,
                14.983551236391872
              ],
              [
                103.99305781017793,
                14.98582278122649
              ],
              [
                103.996722910848,
                14.992466962371232
              ],
              [
                103.99716948368089,
                15.008910662249662
              ],
              [
                103.99970064143447,
                15.013960955702737
              ],
              [
                103.99566279837833,
                15.015796926190847
              ],
              [
                104.00063650932849,
                15.020098410999564
              ],
              [
                104.00992370232646,
                15.019869895914509
              ],
              [
                104.0120423680916,
                15.02975899789608
              ],
              [
                104.01687319025103,
                15.032683274499465
              ],
              [
                104.01302654177567,
                15.042735768053896
              ],
              [
                104.01933849363498,
                15.042647854271477
              ],
              [
                104.02129834847085,
                15.048495379876819
              ],
              [
                104.01535003748464,
                15.052432088469056
              ],
              [
                104.01300553107843,
                15.058356986595543
              ],
              [
                104.00565576136626,
                15.059119989543632
              ],
              [
                104.01351700256204,
                15.065756161239003
              ],
              [
                104.01085753396896,
                15.073898051275561
              ],
              [
                104.01883767574476,
                15.070516562734554
              ],
              [
                104.02055848952807,
                15.078970130281142
              ],
              [
                104.01630552235684,
                15.082265706204181
              ],
              [
                104.00124252208184,
                15.078988201783163
              ],
              [
                104.00185638211134,
                15.087619775825976
              ],
              [
                103.99322010769004,
                15.084187075066358
              ],
              [
                103.99200926049787,
                15.090854058316465
              ],
              [
                103.99624837540082,
                15.089488642044564
              ],
              [
                103.99908325008029,
                15.094198534599004
              ],
              [
                103.99636051382467,
                15.112275731286147
              ],
              [
                103.99216191498857,
                15.111800939807795
              ],
              [
                104.00083829548703,
                15.120934340985892
              ],
              [
                103.99512244810661,
                15.121503685736421
              ],
              [
                103.99558069578326,
                15.124798430070898
              ],
              [
                103.98990230779083,
                15.122966440861912
              ],
              [
                103.98737070795337,
                15.129334927654417
              ],
              [
                103.99110223361316,
                15.135831754884562
              ],
              [
                104.00025386563631,
                15.137310592062436
              ],
              [
                104.00034213042792,
                15.14889821486668
              ],
              [
                103.98437102427573,
                15.15517847198247
              ],
              [
                103.98408162808066,
                15.16120339019723
              ],
              [
                103.97302479451936,
                15.161867080482411
              ],
              [
                103.96679326589714,
                15.16444575549028
              ],
              [
                103.97187316105247,
                15.179509033470312
              ],
              [
                103.9666300420769,
                15.184342546387011
              ],
              [
                103.97736689786377,
                15.190790375232897
              ],
              [
                103.97670998434444,
                15.199978650986669
              ],
              [
                103.98418289894445,
                15.201739046904365
              ],
              [
                103.97597461710072,
                15.20523627751809
              ],
              [
                103.97915424064364,
                15.212062914824893
              ],
              [
                103.97045591544837,
                15.218545901936844
              ],
              [
                103.97597900044738,
                15.226226255729532
              ],
              [
                103.98810520881561,
                15.225682995497127
              ],
              [
                103.98438201910808,
                15.230511458672584
              ],
              [
                103.99168701558703,
                15.236603833896499
              ],
              [
                103.98588097812996,
                15.247387993261015
              ],
              [
                103.99763037899052,
                15.252518096662957
              ],
              [
                103.97814687561366,
                15.263072264388835
              ],
              [
                103.97254533916538,
                15.280155483536468
              ],
              [
                103.97668496266245,
                15.281445450227462
              ],
              [
                103.97724463216352,
                15.27524997443327
              ],
              [
                103.99116109366628,
                15.268458211218064
              ],
              [
                103.99822564792285,
                15.273045930957334
              ],
              [
                103.99641187154734,
                15.295793733816936
              ],
              [
                104.0020112863854,
                15.289451728453622
              ],
              [
                104.01492265221663,
                15.289682512376903
              ],
              [
                104.01023904299721,
                15.3167713706397
              ],
              [
                104.0224467863362,
                15.313890259093466
              ],
              [
                104.02857272253858,
                15.318371381652423
              ],
              [
                104.02825517181368,
                15.323913473369956
              ],
              [
                104.02526775982967,
                15.32854151102649
              ],
              [
                104.02208536256386,
                15.331889881894602
              ],
              [
                104.0358066812959,
                15.328244956342655
              ],
              [
                104.03835104746688,
                15.334635745535046
              ],
              [
                104.04319352730218,
                15.333391910538086
              ],
              [
                104.04437072109069,
                15.34208871122601
              ],
              [
                104.05279088265821,
                15.34086264417423
              ],
              [
                104.05677684630221,
                15.347175238446964
              ],
              [
                104.0605890460719,
                15.343110447060283
              ],
              [
                104.06397539343146,
                15.349551353437366
              ],
              [
                104.06864309600802,
                15.34746390672326
              ],
              [
                104.0753016341543,
                15.353658764929538
              ],
              [
                104.08010403580901,
                15.34858674296257
              ],
              [
                104.09020704510058,
                15.348900952588927
              ],
              [
                104.09218280660478,
                15.358128258439743
              ],
              [
                104.08367799439968,
                15.357469136463683
              ],
              [
                104.08989672778398,
                15.365547499940734
              ],
              [
                104.08435083713715,
                15.363618977068931
              ],
              [
                104.08528284562186,
                15.36987324874446
              ],
              [
                104.07881260105896,
                15.375511845334177
              ],
              [
                104.0838568359109,
                15.384483245243626
              ],
              [
                104.07163164135315,
                15.381058457416165
              ],
              [
                104.0742643255393,
                15.39202468246361
              ],
              [
                104.05911906175207,
                15.40609567499456
              ],
              [
                104.05013805458658,
                15.395973117486301
              ],
              [
                104.04906954421618,
                15.40253350557567
              ],
              [
                104.03315333836525,
                15.407649572488191
              ],
              [
                104.02655112079034,
                15.404091358152625
              ],
              [
                104.01779549253972,
                15.411791265011631
              ],
              [
                104.01233492780445,
                15.40389496190148
              ],
              [
                104.00401955963794,
                15.409816068467206
              ],
              [
                104.00276355887385,
                15.399051292652397
              ],
              [
                103.99352322070217,
                15.393396505661583
              ],
              [
                103.98782699523088,
                15.406904184752502
              ],
              [
                103.99546043553568,
                15.446929269794898
              ],
              [
                104.00036219633859,
                15.453466536103445
              ],
              [
                104.00852757961701,
                15.457437000415005
              ],
              [
                104.0188185711825,
                15.471868979637188
              ],
              [
                104.03269159119077,
                15.490541359306627
              ],
              [
                104.06155269564353,
                15.500315350917777
              ],
              [
                104.05951227760681,
                15.502903121872029
              ],
              [
                104.05527278564023,
                15.515365036208044
              ],
              [
                104.06477418147784,
                15.522315746912026
              ],
              [
                104.06741567977527,
                15.527839165457339
              ],
              [
                104.06804434333753,
                15.522817188879916
              ],
              [
                104.07378209291123,
                15.523090549860225
              ],
              [
                104.0778545308535,
                15.532925980158199
              ],
              [
                104.0743747989608,
                15.540296669339053
              ],
              [
                104.08530515278134,
                15.550453288738474
              ],
              [
                104.10455127227064,
                15.547986884787155
              ],
              [
                104.09918751838497,
                15.567472633344243
              ],
              [
                104.10558567283422,
                15.568801647021232
              ],
              [
                104.11679308493748,
                15.56123619553369
              ],
              [
                104.12143854924084,
                15.563273415224568
              ],
              [
                104.13641060385113,
                15.538407875960997
              ],
              [
                104.13542917518514,
                15.525076389129593
              ],
              [
                104.1328191438419,
                15.514159073196542
              ],
              [
                104.13904870703897,
                15.504667638033537
              ],
              [
                104.16964693108714,
                15.475181612056174
              ],
              [
                104.17318164896848,
                15.462819446571157
              ],
              [
                104.18131032586338,
                15.469829451972329
              ],
              [
                104.18815841503769,
                15.467621448619473
              ],
              [
                104.19311108469081,
                15.457874629976715
              ],
              [
                104.20331469629802,
                15.444225201936122
              ],
              [
                104.23269262849617,
                15.404019347176945
              ],
              [
                104.23304607656489,
                15.403116926635134
              ],
              [
                104.24527837308422,
                15.374021918910042
              ],
              [
                104.26031810586811,
                15.372192324329491
              ],
              [
                104.28615555301312,
                15.356404406793864
              ],
              [
                104.29368962801884,
                15.349602317073115
              ],
              [
                104.30492384980747,
                15.342041999625224
              ],
              [
                104.32064172394244,
                15.346561067546876
              ],
              [
                104.34627161088339,
                15.343015978342075
              ],
              [
                104.35356553056792,
                15.344549653954463
              ],
              [
                104.36603092313952,
                15.329741826019271
              ],
              [
                104.37856814618144,
                15.309742061995168
              ],
              [
                104.38159173539808,
                15.294508908335834
              ],
              [
                104.40607811118578,
                15.288986114185983
              ],
              [
                104.43376089409107,
                15.282878887454718
              ],
              [
                104.45457562523644,
                15.278148875599967
              ],
              [
                104.46621484580653,
                15.26920897953876
              ],
              [
                104.48344073677436,
                15.26775244573304
              ],
              [
                104.50416868997114,
                15.267043615277712
              ],
              [
                104.52288987157581,
                15.252884491531947
              ],
              [
                104.57920757596021,
                15.252953183096814
              ],
              [
                104.575596238233,
                15.257288620029334
              ],
              [
                104.58200210520512,
                15.256871041510887
              ],
              [
                104.59083845037699,
                15.268925760802592
              ],
              [
                104.6014336389371,
                15.26804250160588
              ],
              [
                104.60607858541037,
                15.273897613275734
              ],
              [
                104.60912689368277,
                15.259067687052742
              ],
              [
                104.6259079256258,
                15.25834663058161
              ],
              [
                104.62823822211048,
                15.262562273124288
              ],
              [
                104.63638625511253,
                15.255567428064323
              ],
              [
                104.6450707619167,
                15.254947693025043
              ],
              [
                104.64414552670378,
                15.243120785175009
              ],
              [
                104.64814570307448,
                15.23801192520017
              ],
              [
                104.65888459841237,
                15.238394492575514
              ],
              [
                104.68226894617239,
                15.217814118821607
              ],
              [
                104.68260227050018,
                15.212281487255263
              ],
              [
                104.68974992390392,
                15.207184834336147
              ],
              [
                104.68080280834901,
                15.205566180420327
              ],
              [
                104.68211191275519,
                15.201237675312148
              ],
              [
                104.69566113336688,
                15.203824283820532
              ],
              [
                104.70393807660925,
                15.200709562897412
              ],
              [
                104.6983625639124,
                15.189892086147495
              ],
              [
                104.70289429882015,
                15.18532761723107
              ],
              [
                104.71481406111147,
                15.195373539310598
              ],
              [
                104.71840358459247,
                15.18991686109264
              ],
              [
                104.71458561055071,
                15.184036715612324
              ],
              [
                104.69879490932101,
                15.171767330106832
              ],
              [
                104.70043682592748,
                15.157075576949001
              ],
              [
                104.72358845379787,
                15.170737642254618
              ],
              [
                104.73160904722607,
                15.169824290877147
              ],
              [
                104.73708781997436,
                15.162326633690109
              ],
              [
                104.7299502240251,
                15.155256533905252
              ],
              [
                104.70330652645289,
                15.130201987085766
              ],
              [
                104.68987392613552,
                15.12775433778157
              ],
              [
                104.67949321724491,
                15.12285443862399
              ],
              [
                104.67654942449595,
                15.112990851880394
              ],
              [
                104.68041967568966,
                15.108483251742419
              ],
              [
                104.67067306520647,
                15.0986848896082
              ],
              [
                104.6764762589287,
                15.092865093108845
              ],
              [
                104.68054692565892,
                15.100618560046021
              ],
              [
                104.68937175219672,
                15.09905261013006
              ],
              [
                104.67645775544885,
                15.08564658576245
              ],
              [
                104.69262462183738,
                15.083720514781447
              ],
              [
                104.68653746540797,
                15.07382482972735
              ],
              [
                104.68934371456379,
                15.059575357925443
              ],
              [
                104.68007424280063,
                15.047624464243995
              ],
              [
                104.6863547575266,
                15.042862011572588
              ],
              [
                104.6811850351536,
                15.035778487025983
              ],
              [
                104.6735431341325,
                15.039988576177441
              ],
              [
                104.67529931070472,
                15.034384322747615
              ],
              [
                104.66982134227912,
                15.032383344475857
              ],
              [
                104.67419599625093,
                15.029893754763279
              ],
              [
                104.67204989289142,
                15.022052135055153
              ],
              [
                104.6846599328972,
                15.004760949434987
              ],
              [
                104.68376461137082,
                14.985911843884434
              ],
              [
                104.68288032835389,
                14.977124987477186
              ],
              [
                104.68848549507437,
                14.967900194605306
              ],
              [
                104.68485195093075,
                14.95866219332771
              ],
              [
                104.68446901564319,
                14.951046632930401
              ],
              [
                104.69994555818383,
                14.935229778087045
              ],
              [
                104.7255404682867,
                14.9299398187661
              ],
              [
                104.73632802786061,
                14.939093511455031
              ],
              [
                104.7355435399292,
                14.934057620094979
              ],
              [
                104.75345334067802,
                14.92213483064475
              ],
              [
                104.76240527310902,
                14.921096446162325
              ],
              [
                104.76201416600166,
                14.914252851205031
              ],
              [
                104.77045828428723,
                14.91211317520278
              ],
              [
                104.77804503786692,
                14.89878729730898
              ],
              [
                104.78398788701816,
                14.897076296101625
              ],
              [
                104.80546107242624,
                14.89685217636474
              ],
              [
                104.81020952876975,
                14.869442209424763
              ],
              [
                104.8254687179334,
                14.83782673464358
              ],
              [
                104.80796549485069,
                14.831640674218612
              ],
              [
                104.79673724480226,
                14.810499118284103
              ],
              [
                104.79851026284757,
                14.80261228529697
              ],
              [
                104.81545771387468,
                14.790104954583661
              ],
              [
                104.81791397544593,
                14.776436053128117
              ],
              [
                104.8206972508959,
                14.752447624507361
              ],
              [
                104.83808740069061,
                14.739033644100546
              ]
            ]
          ]
        ]
      }
    }
  ]
}